GLOBALSTAR M067 [+]     
1 32263U 07048A   23333.23138514 -.00000097  00000+0  18619-5 0  9992
2 32263  51.9732 251.9102 0000356 136.2623  29.4734 12.40634550739235
GLOBALSTAR M070 [+]     
1 32264U 07048B   23333.54904644 -.00000069  00000+0  19649-3 0  9993
2 32264  51.9767  51.6097 0000185 142.6853 323.0715 12.62282432742236
GLOBALSTAR M066 [+]     
1 32265U 07048C   23333.28221792 -.00000052  00000+0  28691-3 0  9990
2 32265  51.9681 274.4690 0001274  60.7931 103.4696 12.62277030744466
GLOBALSTAR M068 [-]     
1 32266U 07048D   23333.16786520 -.00000027  00000+0  42907-3 0  9991
2 32266  51.9879 227.5963 0001226  26.2997 138.0222 12.62772634746049
GLOBALSTAR M079 [+]     
1 37188U 10054A   23333.57504838 -.00000087  00000+0  91018-4 0  9999
2 37188  52.0048  61.5982 0000818 125.6308 338.5622 12.62270157605026
GLOBALSTAR M074 [+]     
1 37189U 10054B   23333.43749017 -.00000086  00000+0  96639-4 0  9998
2 37189  52.0036  61.4270 0000625 123.8710 315.6262 12.62272230605611
GLOBALSTAR M076 [+]     
1 37190U 10054C   23333.54886767 -.00000090  00000+0  77736-4 0  9998
2 37190  52.0041  61.2090 0000949 156.5054 307.8431 12.62263924605341
GLOBALSTAR M077 [+]     
1 37191U 10054D   23333.45664725 -.00000074  00000+0  16635-3 0  9999
2 37191  52.0100  18.1860 0000292 122.5176 341.9551 12.62266984605704
